{
  "type": "FeatureCollection",
  "features": [
    {
      "type": "Feature",
      "properties": {
        "norad_id": 41773,
        "name": "SKYSAT-C2",
        "group": "resource",
        "lat": 13.333682104559355,
        "lon": -161.66002012234665,
        "alt_km": 457.15889498837714,
        "timestamp": "2025-12-18T08:58:43.049048+00:00",
        "meta_object_name": "SKYSAT-C2",
        "meta_object_id": "2016-058D",
        "meta_epoch": "2025-12-17T19:45:36.795456",
        "meta_mean_motion": 15.37384895,
        "meta_eccentricity": 0.0003684,
        "meta_inclination": 97.0355,
        "meta_ra_of_asc_node": 16.1351,
        "meta_arg_of_pericenter": 21.2199,
        "meta_mean_anomaly": 338.9198,
        "meta_ephemeris_type": 0,
        "meta_classification_type": "U",
        "meta_norad_cat_id": 41773,
        "meta_element_set_no": 999,
        "meta_rev_at_epoch": 51714,
        "meta_bstar": 0.00027499147,
        "meta_mean_motion_dot": 0.00010004,
        "meta_mean_motion_ddot": 0,
        "tle_line1": "1 41773U 16058D   25351.82334254  .00010004  00000+0  27499-3 0  9997",
        "tle_line2": "2 41773  97.0355  16.1351 0003684  21.2199 338.9198 15.37384895517147"
      },
      "geometry": {
        "type": "Point",
        "coordinates": [
          -161.66002012234665,
          13.333682104559355
        ]
      }
    },
    {
      "type": "Feature",
      "properties": {
        "norad_id": 41774,
        "name": "SKYSAT-C3",
        "group": "resource",
        "lat": 39.50328968876745,
        "lon": -148.38685984344843,
        "alt_km": 428.60760117370137,
        "timestamp": "2025-12-18T08:58:43.049058+00:00",
        "meta_object_name": "SKYSAT-C3",
        "meta_object_id": "2016-058E",
        "meta_epoch": "2025-12-17T19:56:08.360448",
        "meta_mean_motion": 15.44576204,
        "meta_eccentricity": 0.00018353,
        "meta_inclination": 96.9293,
        "meta_ra_of_asc_node": 25.3403,
        "meta_arg_of_pericenter": 107.8799,
        "meta_mean_anomaly": 252.2651,
        "meta_ephemeris_type": 0,
        "meta_classification_type": "U",
        "meta_norad_cat_id": 41774,
        "meta_element_set_no": 999,
        "meta_rev_at_epoch": 51804,
        "meta_bstar": 0.00034920436,
        "meta_mean_motion_dot": 0.0001616,
        "meta_mean_motion_ddot": 0,
        "tle_line1": "1 41774U 16058E   25351.83065232  .00016160  00000+0  34920-3 0  9992",
        "tle_line2": "2 41774  96.9293  25.3403 0001835 107.8799 252.2651 15.44576204518047"
      },
      "geometry": {
        "type": "Point",
        "coordinates": [
          -148.38685984344843,
          39.50328968876745
        ]
      }
    },
    {
      "type": "Feature",
      "properties": {
        "norad_id": 41785,
        "name": "ALSAT 1B",
        "group": "resource",
        "lat": -27.84970638401453,
        "lon": 8.064343644442264,
        "alt_km": 663.4924429365337,
        "timestamp": "2025-12-18T08:58:43.049068+00:00",
        "meta_object_name": "ALSAT 1B",
        "meta_object_id": "2016-059C",
        "meta_epoch": "2025-12-17T23:19:05.496096",
        "meta_mean_motion": 14.72081213,
        "meta_eccentricity": 0.001077,
        "meta_inclination": 97.7813,
        "meta_ra_of_asc_node": 3.5361,
        "meta_arg_of_pericenter": 88.5981,
        "meta_mean_anomaly": 271.646,
        "meta_ephemeris_type": 0,
        "meta_classification_type": "U",
        "meta_norad_cat_id": 41785,
        "meta_element_set_no": 999,
        "meta_rev_at_epoch": 49391,
        "meta_bstar": 7.0744609e-05,
        "meta_mean_motion_dot": 3.98e-06,
        "meta_mean_motion_ddot": 0,
        "tle_line1": "1 41785U 16059C   25351.97159139  .00000398  00000+0  70745-4 0  9992",
        "tle_line2": "2 41785  97.7813   3.5361 0010770  88.5981 271.6460 14.72081213493915"
      },
      "geometry": {
        "type": "Point",
        "coordinates": [
          8.064343644442264,
          -27.84970638401453
        ]
      }
    },
    {
      "type": "Feature",
      "properties": {
        "norad_id": 41787,
        "name": "PATHFINDER 1",
        "group": "resource",
        "lat": -45.42686746960585,
        "lon": 2.898131710713419,
        "alt_km": 683.4846653054528,
        "timestamp": "2025-12-18T08:58:43.049078+00:00",
        "meta_object_name": "PATHFINDER 1",
        "meta_object_id": "2016-059E",
        "meta_epoch": "2025-12-17T21:43:53.212800",
        "meta_mean_motion": 14.67330244,
        "meta_eccentricity": 0.00299287,
        "meta_inclination": 97.8136,
        "meta_ra_of_asc_node": 354.4394,
        "meta_arg_of_pericenter": 65.5153,
        "meta_mean_anomaly": 294.9169,
        "meta_ephemeris_type": 0,
        "meta_classification_type": "U",
        "meta_norad_cat_id": 41787,
        "meta_element_set_no": 999,
        "meta_rev_at_epoch": 49312,
        "meta_bstar": 0.00012459494,
        "meta_mean_motion_dot": 6.61e-06,
        "meta_mean_motion_ddot": 0,
        "tle_line1": "1 41787U 16059E   25351.90547700  .00000661  00000+0  12459-3 0  9992",
        "tle_line2": "2 41787  97.8136 354.4394 0029928  65.5153 294.9169 14.67330244493123"
      },
      "geometry": {
        "type": "Point",
        "coordinates": [
          2.898131710713419,
          -45.42686746960585
        ]
      }
    },
    {
      "type": "Feature",
      "properties": {
        "norad_id": 41790,
        "name": "SCATSAT 1",
        "group": "resource",
        "lat": -3.2655541660262695,
        "lon": -131.35368532463923,
        "alt_km": 624.2942761478535,
        "timestamp": "2025-12-18T08:58:43.049089+00:00",
        "meta_object_name": "SCATSAT 1",
        "meta_object_id": "2016-059H",
        "meta_epoch": "2025-12-17T17:32:40.934112",
        "meta_mean_motion": 14.78953066,
        "meta_eccentricity": 0.00564081,
        "meta_inclination": 98.1459,
        "meta_ra_of_asc_node": 48.4635,
        "meta_arg_of_pericenter": 112.233,
        "meta_mean_anomaly": 248.4878,
        "meta_ephemeris_type": 0,
        "meta_classification_type": "U",
        "meta_norad_cat_id": 41790,
        "meta_element_set_no": 999,
        "meta_rev_at_epoch": 7476,
        "meta_bstar": 0.0001711888,
        "meta_mean_motion_dot": 1.24e-05,
        "meta_mean_motion_ddot": 0,
        "tle_line1": "1 41790U 16059H   25351.73102933  .00001240  00000+0  17119-3 0  9994",
        "tle_line2": "2 41790  98.1459  48.4635 0056408 112.2330 248.4878 14.78953066 74768"
      },
      "geometry": {
        "type": "Point",
        "coordinates": [
          -131.35368532463923,
          -3.2655541660262695
        ]
      }
    },
    {
      "type": "Feature",
      "properties": {
        "norad_id": 41875,
        "name": "GOKTURK 1A",
        "group": "resource",
        "lat": -59.325583862893126,
        "lon": -101.3670689617403,
        "alt_km": 691.9707858656002,
        "timestamp": "2025-12-18T08:58:43.049099+00:00",
        "meta_object_name": "GOKTURK 1A",
        "meta_object_id": "2016-073A",
        "meta_epoch": "2025-12-17T23:24:14.040864",
        "meta_mean_motion": 14.62785862,
        "meta_eccentricity": 0.00012342,
        "meta_inclination": 98.1432,
        "meta_ra_of_asc_node": 244.2704,
        "meta_arg_of_pericenter": 79.6067,
        "meta_mean_anomaly": 280.5274,
        "meta_ephemeris_type": 0,
        "meta_classification_type": "U",
        "meta_norad_cat_id": 41875,
        "meta_element_set_no": 999,
        "meta_rev_at_epoch": 48233,
        "meta_bstar": 9.8467025e-05,
        "meta_mean_motion_dot": 4.55e-06,
        "meta_mean_motion_ddot": 0,
        "tle_line1": "1 41875U 16073A   25351.97516251  .00000455  00000+0  98467-4 0  9995",
        "tle_line2": "2 41875  98.1432 244.2704 0001234  79.6067 280.5274 14.62785862482339"
      },
      "geometry": {
        "type": "Point",
        "coordinates": [
          -101.3670689617403,
          -59.325583862893126
        ]
      }
    },
    {
      "type": "Feature",
      "properties": {
        "norad_id": 41877,
        "name": "RESOURCESAT-2A",
        "group": "resource",
        "lat": -53.86443488485105,
        "lon": -130.01615056995905,
        "alt_km": 825.9766264907903,
        "timestamp": "2025-12-18T08:58:43.049109+00:00",
        "meta_object_name": "RESOURCESAT-2A",
        "meta_object_id": "2016-074A",
        "meta_epoch": "2025-12-17T23:25:54.411744",
        "meta_mean_motion": 14.21601173,
        "meta_eccentricity": 0.00013044,
        "meta_inclination": 98.7756,
        "meta_ra_of_asc_node": 61.802,
        "meta_arg_of_pericenter": 229.2957,
        "meta_mean_anomaly": 130.8107,
        "meta_ephemeris_type": 0,
        "meta_classification_type": "U",
        "meta_norad_cat_id": 41877,
        "meta_element_set_no": 999,
        "meta_rev_at_epoch": 46855,
        "meta_bstar": 5.2889613e-05,
        "meta_mean_motion_dot": 7.2e-07,
        "meta_mean_motion_ddot": 0,
        "tle_line1": "1 41877U 16074A   25351.97632421  .00000072  00000+0  52890-4 0  9991",
        "tle_line2": "2 41877  98.7756  61.8020 0001304 229.2957 130.8107 14.21601173468556"
      },
      "geometry": {
        "type": "Point",
        "coordinates": [
          -130.01615056995905,
          -53.86443488485105
        ]
      }
    }
  ]
}